#dP2018  5 12  0  0  0.00000000      96 __u+U ITR00 FIT  IAC
## 2000 518400.00000000   900.00000000 58250 0.0000000000000
+   84   C01C03C04C05C06C07C08C09C10C11C12C13C14E01E02E03E04
+        E05E07E08E09E12E14E18E19E24E26E30G01G02G03G05G06G07
+        G08G09G10G11G12G13G14G15G16G17G18G19G20G21G22G23G24
+        G25G26G27G28G29G30G31G32J01J02J03R01R02R03R04R07R08
+        R09R10R11R13R14R15R16R17R18R19R20R21R22R23R24R26  0
++        12 12 13 12  9  9  9  9  8  8  8  8  8  6  6  6  7
++         6  6  6  7  7  7  6  6  7  6  6  3  3  3  4  3  3
++         3  3  4  4  3  4  4  4  3  3  4  3  4  3  3  3  4
++         3  3  4  4  4  3  3  4 11 11 11  6  6  5  5  6  5
++         5  5  5  5  5  5  5  5  5  5  5  5  6  5  6  9  0
%c M  cc GPS ccc cccc cccc cccc cccc ccccc ccccc ccccc ccccc
%c cc cc ccc ccc cccc cccc cccc cccc ccccc ccccc ccccc ccccc
%f  0.0000000  0.000000000  0.00000000000  0.000000000000000
%f  0.0000000  0.000000000  0.00000000000  0.000000000000000
%i    0    0    0    0      0      0      0      0         0
%i    0    0    0    0      0      0      0      0         0
/* INFORMATION & ANALYSIS CENTER (IAC) OF MCC   (RAPID DATA)
/* S/V CLOCKS ARE ALIGNED TO GPS & GLONASS TIME RESPECTIVELY
/* USING THE BROADCAST EPHEMERIS                            
/* PCV:IGS14_1992 OL/AL:FES2004  NONE     YN ORB:CoN CLK:CoN
*  2018 05 12 15 45  0.00000000
PC01 -32341.149260  27038.757508  -1012.194399   -307.692657
PC03 -14760.485828  39531.017844   -377.400267   -370.593871
PC04 -39606.121629  14434.242798   -370.332539   -260.340405
PC05  21830.174241  36051.249225   1579.424198    428.722867
PC06 -10330.972982  36155.794906  19668.471338     17.298234
PC07 -14992.511569  21306.052801 -33083.451947    152.659525
PC08 -25828.510305  30209.005756  13805.372189    334.983477
PC09   -647.415394  42071.746564   4861.202885   -136.356533
PC10   2256.052750  26955.487891 -32174.465213   -226.402252
PC11  15825.029136 -22135.196198   6404.232832   -504.954955
PC12  17951.480724  -5311.747649  20776.502603    440.923328
PC13 -13009.298299  31326.363478  24902.987274   -328.271676
PC14  10353.354338 -12841.264253 -22439.105543    302.887406
PE01  -2095.739646 -17015.157973  24124.476038   -342.979474
PE02   2120.399144  17024.236789 -24127.938281     13.322713
PE03   1953.340733  28768.822087   6676.258736    -31.259930
PE04 -14049.188855 -23308.547005  11645.896115    -32.790825
PE05 -11316.433181  17381.764653  21128.118895    266.873663
PE07  17925.070122   4148.724467 -23172.694580     34.328691
PE08  14184.502344  23210.227224 -11653.640637   6586.231953
PE09 -17849.101523  -4067.548728  23275.801709   6794.151576
PE12 -10894.696745 -12419.520217 -24554.956892   4140.786323
PE14   5557.761441 -25758.723372  -1294.367776   6584.239530
PE18 -15915.323638  23847.720839 -10876.120974   6213.918762
PE19   -803.663196 -28368.085303  -8388.918207     22.225420
PE24 -28650.780712  -4493.866309  -5906.665992   6710.661653
PE26  21678.712628 -20139.596135    694.233899   5946.136901
PE30  21815.688407  15316.756403 -12889.641386   5846.525239
PG01   -587.698181 -15473.712535 -21687.965414    -47.303257
PG02 -19966.946642  15153.969244   8955.366188    117.586206
PG03  -9220.690053 -20759.984526 -13832.184887     68.978434
PG05 -10549.270138  11324.977650  21489.313935     -8.081858
PG06 -25551.446772   5830.460459  -4362.991910    403.843890
PG07 -17077.911409  -8375.496839  18933.421648    192.975816
PG08   4840.308998 -26028.533613    286.258919   -101.003116
PG09  -9748.179873 -17157.355494  17740.491632    513.593746
PG10  22322.189120   8089.202606 -12020.859701    184.419919
PG11   1786.857348 -20492.143307 -17437.243025   -736.390008
PG12   5468.298279  20474.353295 -16321.288376    334.156505
PG13 -12489.175892  22149.469964   7568.581141    -94.515182
PG14  15897.916825 -11013.230102 -17834.400061    -96.835108
PG15  -2069.783933  26257.324007   -955.188411   -354.320723
PG16  11334.015221  -9233.696598  22029.472040     25.024853
PG17 -14986.840099    962.994851 -21507.372501    -98.695740
PG18   8413.955651 -17541.595876 -18456.173624      8.169182
PG19 -16191.914494   8908.521142 -19438.070188   -436.899043
PG20  19272.895870  17673.804969   4809.949616    507.999203
PG21  19651.191722   5872.243088  17672.405572   -395.985240
PG22  -1120.105561 -18607.665288 -18678.747876   -389.210454
PG23  -1618.332824 -25067.252005   8213.044873   -217.151039
PG24  -2898.089597  16989.342586 -20255.568240    -49.656561
PG25  17223.713913  19735.625957  -5285.978170   -583.966453
PG26  18907.704142  -1403.732047  18642.870544   -151.719754
PG27  12115.302099 -20037.900895  12204.542737    369.203674
PG28 -21042.191013 -12731.821607  -9343.778370    714.552559
PG29   6234.909681  19874.717870  16468.914416    451.179352
PG30 -23618.167811  -2244.557617  12111.538931     74.925419
PG31  25910.962280  -6283.445180  -2568.942566    122.156685
PG32  15473.912470   -328.231251 -21541.517241   -510.365094
PJ01 -25466.727183  22861.157057  29762.149420   -264.886041
PJ02 -33161.342041  16754.732836 -15458.800789    -22.821292
PJ03 -21311.576576  30134.597288 -15797.491431    -15.292560
PR01  -4809.739578  13897.863092  20845.129637     26.128731
PR02   7283.077940  23788.016887   5791.773828    309.397667
PR03  13852.318532  17996.868112 -11611.306620    132.001531
PR04  12162.414238   1206.452872 -22369.949018    260.660144
PR07 -13925.896416 -17607.867938  12119.556490    -37.395436
PR08 -12386.595914  -1857.246776  22277.690444     23.209855
PR09  -5875.625630 -11469.062450  22034.193524     28.576353
PR10 -21423.717222  -8004.386904  11356.554597     24.264689
PR11 -24694.229390     51.258987  -6475.439068    -28.629571
PR13   6244.125807  11099.927913 -22122.855357    -10.350514
PR14  21241.572738   8122.044955 -11534.633427     27.172975
PR15  25348.280453   1978.567039   2626.010249    -10.079310
PR16  14120.064635  -7964.994188  19705.620604     92.365138
PR17   7929.287304   7237.571061  23146.170051    131.905474
PR18  16392.048890  -8450.882037  17600.545038    195.302663
PR19  16358.463644 -19464.903041   1995.914757    -52.244731
PR20   5836.155028 -19061.617654 -15871.961666   -337.711584
PR21  -8062.998031  -6930.250865 -23186.529713     16.806040
PR22 -16943.337426  10275.927473 -16142.026214    -42.305403
PR23 -14649.674850  20807.809874   1833.677996    153.210839
PR24  -4872.052585  18852.796618  16465.949928   -166.203716
PR26   5964.232056 -19496.920307 -15328.174737     19.049348
EOF
